[{"OBJECT_NAME":"STARLINK-33622","OBJECT_ID":"2025-035Q","EPOCH":"2026-03-09T13:32:34.901376","MEAN_MOTION":15.27571395,"ECCENTRICITY":0.0001645,"INCLINATION":42.9986,"RA_OF_ASC_NODE":147.514,"ARG_OF_PERICENTER":287.0242,"MEAN_ANOMALY":73.0429,"EPHEMERIS_TYPE":0,"CLASSIFICATION_TYPE":"U","NORAD_CAT_ID":63066,"ELEMENT_SET_NO":999,"REV_AT_EPOCH":5971,"BSTAR":0.0011273,"MEAN_MOTION_DOT":0.00030881,"MEAN_MOTION_DDOT":0},{"OBJECT_NAME":"HERMES-2","OBJECT_ID":"2025-052AK","EPOCH":"2026-03-09T22:17:00.130272","MEAN_MOTION":15.28021069,"ECCENTRICITY":0.00063399,"INCLINATION":97.4004,"RA_OF_ASC_NODE":324.4926,"ARG_OF_PERICENTER":99.416,"MEAN_ANOMALY":260.7796,"EPHEMERIS_TYPE":0,"CLASSIFICATION_TYPE":"U","NORAD_CAT_ID":63243,"ELEMENT_SET_NO":999,"REV_AT_EPOCH":5485,"BSTAR":0.00034839454,"MEAN_MOTION_DOT":9.456e-5,"MEAN_MOTION_DDOT":0}]
